[{"OBJECT_NAME":"CUTE-1.7+APD II (CO-65)","OBJECT_ID":"2008-021C","EPOCH":"2026-03-09T21:54:04.726080","MEAN_MOTION":15.08376872,"ECCENTRICITY":0.00096053,"INCLINATION":97.8207,"RA_OF_ASC_NODE":48.3884,"ARG_OF_PERICENTER":18.7003,"MEAN_ANOMALY":341.4575,"EPHEMERIS_TYPE":0,"CLASSIFICATION_TYPE":"U","NORAD_CAT_ID":32785,"ELEMENT_SET_NO":999,"REV_AT_EPOCH":97022,"BSTAR":0.00047295391,"MEAN_MOTION_DOT":7.295e-5,"MEAN_MOTION_DDOT":0},{"OBJECT_NAME":"NOAA 17 DEB","OBJECT_ID":"2002-032AW","EPOCH":"2026-03-09T06:42:02.833344","MEAN_MOTION":15.0155296,"ECCENTRICITY":0.0036655,"INCLINATION":98.9692,"RA_OF_ASC_NODE":191.508,"ARG_OF_PERICENTER":264.8759,"MEAN_ANOMALY":94.8277,"EPHEMERIS_TYPE":0,"CLASSIFICATION_TYPE":"U","NORAD_CAT_ID":48713,"ELEMENT_SET_NO":999,"REV_AT_EPOCH":26502,"BSTAR":0.0031489084,"MEAN_MOTION_DOT":0.00041514,"MEAN_MOTION_DDOT":0}]
